{
  "type": "FeatureCollection",
  "features": [
    {
      "type": "Feature",
      "properties": {
        "norad_id": 66732,
        "name": "FLOCK 4H-29",
        "group": "last-30-days",
        "lat": 4.577113688807573,
        "lon": -107.73334887678352,
        "alt_km": 516.1549827860417,
        "timestamp": "2025-12-26T03:50:10.806982+00:00",
        "meta_object_name": "FLOCK 4H-29",
        "meta_object_id": "2025-276BU",
        "meta_epoch": "2025-12-25T16:00:01.998720",
        "meta_mean_motion": 15.17296277,
        "meta_eccentricity": 0.0001938,
        "meta_inclination": 97.4368,
        "meta_ra_of_asc_node": 71.1834,
        "meta_arg_of_pericenter": 259.3991,
        "meta_mean_anomaly": 103.798,
        "meta_ephemeris_type": 0,
        "meta_classification_type": "U",
        "meta_norad_cat_id": 66732,
        "meta_element_set_no": 999,
        "meta_rev_at_epoch": 350,
        "meta_bstar": 0.0025858,
        "meta_mean_motion_dot": 0.00051787,
        "meta_mean_motion_ddot": 0,
        "tle_line1": "1 66732U 25276BU  25359.66668980  .00051787  00000+0  25858-2 0  9996",
        "tle_line2": "2 66732  97.4368  71.1834 0001938 259.3991 103.7980 15.17296277  3509"
      },
      "geometry": {
        "type": "Point",
        "coordinates": [
          -107.73334887678352,
          4.577113688807573
        ]
      }
    },
    {
      "type": "Feature",
      "properties": {
        "norad_id": 66733,
        "name": "FLOCK 4H-30",
        "group": "last-30-days",
        "lat": 11.086305667374006,
        "lon": -106.84082747111604,
        "alt_km": 515.1021047546637,
        "timestamp": "2025-12-26T03:50:10.806996+00:00",
        "meta_object_name": "FLOCK 4H-30",
        "meta_object_id": "2025-276BV",
        "meta_epoch": "2025-12-25T20:00:01.999008",
        "meta_mean_motion": 15.17318686,
        "meta_eccentricity": 0.0003185,
        "meta_inclination": 97.4433,
        "meta_ra_of_asc_node": 71.3705,
        "meta_arg_of_pericenter": 247.3664,
        "meta_mean_anomaly": 299.1175,
        "meta_ephemeris_type": 0,
        "meta_classification_type": "U",
        "meta_norad_cat_id": 66733,
        "meta_element_set_no": 999,
        "meta_rev_at_epoch": 353,
        "meta_bstar": -0.002524,
        "meta_mean_motion_dot": -0.00050016,
        "meta_mean_motion_ddot": 0,
        "tle_line1": "1 66733U 25276BV  25359.83335647 -.00050016  00000+0 -25240-2 0  9998",
        "tle_line2": "2 66733  97.4433  71.3705 0003185 247.3664 299.1175 15.17318686  3530"
      },
      "geometry": {
        "type": "Point",
        "coordinates": [
          -106.84082747111604,
          11.086305667374006
        ]
      }
    },
    {
      "type": "Feature",
      "properties": {
        "norad_id": 66734,
        "name": "FLOCK 4H-31",
        "group": "last-30-days",
        "lat": 10.924593147409233,
        "lon": -106.88967872102647,
        "alt_km": 515.6980144035924,
        "timestamp": "2025-12-26T03:50:10.807006+00:00",
        "meta_object_name": "FLOCK 4H-31",
        "meta_object_id": "2025-276BW",
        "meta_epoch": "2025-12-25T19:10:48.216288",
        "meta_mean_motion": 15.17240873,
        "meta_eccentricity": 0.0002538,
        "meta_inclination": 97.4365,
        "meta_ra_of_asc_node": 71.3117,
        "meta_arg_of_pericenter": 259.4055,
        "meta_mean_anomaly": 100.6893,
        "meta_ephemeris_type": 0,
        "meta_classification_type": "U",
        "meta_norad_cat_id": 66734,
        "meta_element_set_no": 999,
        "meta_rev_at_epoch": 410,
        "meta_bstar": 0.00039504,
        "meta_mean_motion_dot": 7.796e-05,
        "meta_mean_motion_ddot": 0,
        "tle_line1": "1 66734U 25276BW  25359.79916917  .00007796  00000+0  39504-3 0  9993",
        "tle_line2": "2 66734  97.4365  71.3117 0002538 259.4055 100.6893 15.17240873  4100"
      },
      "geometry": {
        "type": "Point",
        "coordinates": [
          -106.88967872102647,
          10.924593147409233
        ]
      }
    },
    {
      "type": "Feature",
      "properties": {
        "norad_id": 66735,
        "name": "FLOCK 4H-32",
        "group": "last-30-days",
        "lat": 12.964069822962026,
        "lon": -106.58885313164487,
        "alt_km": 514.7544826632184,
        "timestamp": "2025-12-26T03:50:10.807016+00:00",
        "meta_object_name": "FLOCK 4H-32",
        "meta_object_id": "2025-276BX",
        "meta_epoch": "2025-12-25T19:11:21.043968",
        "meta_mean_motion": 15.1726855,
        "meta_eccentricity": 0.0003592,
        "meta_inclination": 97.4423,
        "meta_ra_of_asc_node": 71.3328,
        "meta_arg_of_pericenter": 244.7814,
        "meta_mean_anomaly": 115.3047,
        "meta_ephemeris_type": 0,
        "meta_classification_type": "U",
        "meta_norad_cat_id": 66735,
        "meta_element_set_no": 999,
        "meta_rev_at_epoch": 410,
        "meta_bstar": 0.00052881,
        "meta_mean_motion_dot": 0.00010471,
        "meta_mean_motion_ddot": 0,
        "tle_line1": "1 66735U 25276BX  25359.79954912  .00010471  00000+0  52881-3 0  9998",
        "tle_line2": "2 66735  97.4423  71.3328 0003592 244.7814 115.3047 15.17268550  4107"
      },
      "geometry": {
        "type": "Point",
        "coordinates": [
          -106.58885313164487,
          12.964069822962026
        ]
      }
    },
    {
      "type": "Feature",
      "properties": {
        "norad_id": 66736,
        "name": "FLOCK 4H-33",
        "group": "last-30-days",
        "lat": -82.54761041656029,
        "lon": 159.5642620368002,
        "alt_km": 519.1772662957419,
        "timestamp": "2025-12-26T03:50:10.807026+00:00",
        "meta_object_name": "FLOCK 4H-33",
        "meta_object_id": "2025-276BY",
        "meta_epoch": "2025-12-25T17:09:34.106112",
        "meta_mean_motion": 15.18334704,
        "meta_eccentricity": 0.000279,
        "meta_inclination": 97.442,
        "meta_ra_of_asc_node": 71.2923,
        "meta_arg_of_pericenter": 151.7464,
        "meta_mean_anomaly": 208.3922,
        "meta_ephemeris_type": 0,
        "meta_classification_type": "U",
        "meta_norad_cat_id": 66736,
        "meta_element_set_no": 999,
        "meta_rev_at_epoch": 409,
        "meta_bstar": 0.00053563,
        "meta_mean_motion_dot": 0.00010937,
        "meta_mean_motion_ddot": 0,
        "tle_line1": "1 66736U 25276BY  25359.71497808  .00010937  00000+0  53563-3 0  9992",
        "tle_line2": "2 66736  97.4420  71.2923 0002790 151.7464 208.3922 15.18334704  4091"
      },
      "geometry": {
        "type": "Point",
        "coordinates": [
          159.5642620368002,
          -82.54761041656029
        ]
      }
    },
    {
      "type": "Feature",
      "properties": {
        "norad_id": 66737,
        "name": "FLOCK 4H-34",
        "group": "last-30-days",
        "lat": -77.08358721405575,
        "lon": -143.02477527845497,
        "alt_km": 519.0356938485302,
        "timestamp": "2025-12-26T03:50:10.807037+00:00",
        "meta_object_name": "FLOCK 4H-34",
        "meta_object_id": "2025-276BZ",
        "meta_epoch": "2025-12-25T18:47:17.083104",
        "meta_mean_motion": 15.1818541,
        "meta_eccentricity": 0.0002489,
        "meta_inclination": 97.4433,
        "meta_ra_of_asc_node": 71.3599,
        "meta_arg_of_pericenter": 157.9282,
        "meta_mean_anomaly": 202.206,
        "meta_ephemeris_type": 0,
        "meta_classification_type": "U",
        "meta_norad_cat_id": 66737,
        "meta_element_set_no": 999,
        "meta_rev_at_epoch": 335,
        "meta_bstar": 0.00038569,
        "meta_mean_motion_dot": 7.82e-05,
        "meta_mean_motion_ddot": 0,
        "tle_line1": "1 66737U 25276BZ  25359.78283661  .00007820  00000+0  38569-3 0  9996",
        "tle_line2": "2 66737  97.4433  71.3599 0002489 157.9282 202.2060 15.18185410  3359"
      },
      "geometry": {
        "type": "Point",
        "coordinates": [
          -143.02477527845497,
          -77.08358721405575
        ]
      }
    },
    {
      "type": "Feature",
      "properties": {
        "norad_id": 66738,
        "name": "FLOCK 4H-35",
        "group": "last-30-days",
        "lat": -82.53461352822148,
        "lon": 165.9875488576021,
        "alt_km": 519.4815086838917,
        "timestamp": "2025-12-26T03:50:10.807047+00:00",
        "meta_object_name": "FLOCK 4H-35",
        "meta_object_id": "2025-276CA",
        "meta_epoch": "2025-12-25T17:09:46.019808",
        "meta_mean_motion": 15.18283762,
        "meta_eccentricity": 0.0002605,
        "meta_inclination": 97.4398,
        "meta_ra_of_asc_node": 71.283,
        "meta_arg_of_pericenter": 142.7622,
        "meta_mean_anomaly": 217.3793,
        "meta_ephemeris_type": 0,
        "meta_classification_type": "U",
        "meta_norad_cat_id": 66738,
        "meta_element_set_no": 999,
        "meta_rev_at_epoch": 338,
        "meta_bstar": 0.00049039,
        "meta_mean_motion_dot": 9.992e-05,
        "meta_mean_motion_ddot": 0,
        "tle_line1": "1 66738U 25276CA  25359.71511597  .00009992  00000+0  49039-3 0  9998",
        "tle_line2": "2 66738  97.4398  71.2830 0002605 142.7622 217.3793 15.18283762  3389"
      },
      "geometry": {
        "type": "Point",
        "coordinates": [
          165.9875488576021,
          -82.53461352822148
        ]
      }
    }
  ]
}